{"type": "FeatureCollection", "features": [ {"type": "Feature", "properties": {"norad_id": 33693, "name": "FENGYUN 1C DEB", "group": "fengyun-1c-debris", "lat": -50.71194552153387, "lon": -34.51496858509506, "alt_km": 1142.0670788696889, "timestamp": "2025-12-04T21:36:16.159817+00:00", "meta": {"OBJECT_NAME": "FENGYUN 1C DEB", "OBJECT_ID": "1999-025DGE", "EPOCH": "2025-12-02T10:41:23.670240", "MEAN_MOTION": 13.71264167, "ECCENTRICITY": 0.02264355, "INCLINATION": 99.2155, "RA_OF_ASC_NODE": 154.5726, "ARG_OF_PERICENTER": 25.8036, "MEAN_ANOMALY": 335.4204, "EPHEMERIS_TYPE": 0, "CLASSIFICATION_TYPE": "U", "NORAD_CAT_ID": 33693, "ELEMENT_SET_NO": 999, "REV_AT_EPOCH": 88090, "BSTAR": 0.001988298, "MEAN_MOTION_DOT": 2.098e-05, "MEAN_MOTION_DDOT": 0}, "tle": {"line1": "1 33693U 99025DGE 25336.44541285  .00002098  00000+0  19883-2 0  9990", "line2": "2 33693  99.2155 154.5726 0226435  25.8036 335.4204 13.71264167880907"}}, "geometry": {"type": "Point", "coordinates": [-34.51496858509506, -50.71194552153387]}}, {"type": "Feature", "properties": {"norad_id": 33698, "name": "FENGYUN 1C DEB", "group": "fengyun-1c-debris", "lat": 22.40830383176314, "lon": -66.22148866403404, "alt_km": 782.4285911098932, "timestamp": "2025-12-04T21:36:16.159829+00:00", "meta": {"OBJECT_NAME": "FENGYUN 1C DEB", "OBJECT_ID": "1999-025DGK", "EPOCH": "2025-12-02T03:30:41.976288", "MEAN_MOTION": 14.55663809, "ECCENTRICITY": 0.01372841, "INCLINATION": 99.6199, "RA_OF_ASC_NODE": 294.6189, "ARG_OF_PERICENTER": 249.5028, "MEAN_ANOMALY": 109.1385, "EPHEMERIS_TYPE": 0, "CLASSIFICATION_TYPE": "U", "NORAD_CAT_ID": 33698, "ELEMENT_SET_NO": 999, "REV_AT_EPOCH": 95482, "BSTAR": 0.00039736812, "MEAN_MOTION_DOT": 1.902e-05, "MEAN_MOTION_DDOT": 0}, "tle": {"line1": "1 33698U 99025DGK 25336.14631917  .00001902  00000+0  39737-3 0  9998", "line2": "2 33698  99.6199 294.6189 0137284 249.5028 109.1385 14.55663809954820"}}, "geometry": {"type": "Point", "coordinates": [-66.22148866403404, 22.40830383176314]}}, {"type": "Feature", "properties": {"norad_id": 33701, "name": "FENGYUN 1C DEB", "group": "fengyun-1c-debris", "lat": 21.228597536838237, "lon": 117.08016949097244, "alt_km": 825.7767646374041, "timestamp": "2025-12-04T21:36:16.159840+00:00", "meta": {"OBJECT_NAME": "FENGYUN 1C DEB", "OBJECT_ID": "1999-025DGN", "EPOCH": "2025-11-19T19:29:54.481632", "MEAN_MOTION": 14.02181122, "ECCENTRICITY": 0.01331995, "INCLINATION": 98.6598, "RA_OF_ASC_NODE": 279.346, "ARG_OF_PERICENTER": 252.9525, "MEAN_ANOMALY": 105.7013, "EPHEMERIS_TYPE": 0, "CLASSIFICATION_TYPE": "U", "NORAD_CAT_ID": 33701, "ELEMENT_SET_NO": 999, "REV_AT_EPOCH": 90184, "BSTAR": 0.0018411078, "MEAN_MOTION_DOT": 3.003e-05, "MEAN_MOTION_DDOT": 0}, "tle": {"line1": "1 33701U 99025DGN 25323.81243613  .00003003  00000+0  18411-2 0  9994", "line2": "2 33701  98.6598 279.3460 0133199 252.9525 105.7013 14.02181122901849"}}, "geometry": {"type": "Point", "coordinates": [117.08016949097244, 21.228597536838237]}}, {"type": "Feature", "properties": {"norad_id": 33710, "name": "FENGYUN 1C DEB", "group": "fengyun-1c-debris", "lat": -62.44698760382168, "lon": 95.38139306097095, "alt_km": 885.6107700427838, "timestamp": "2025-12-04T21:36:16.159850+00:00", "meta": {"OBJECT_NAME": "FENGYUN 1C DEB", "OBJECT_ID": "1999-025DGX", "EPOCH": "2025-12-02T05:15:53.096256", "MEAN_MOTION": 14.11571356, "ECCENTRICITY": 0.0056132, "INCLINATION": 98.9804, "RA_OF_ASC_NODE": 75.0562, "ARG_OF_PERICENTER": 176.3436, "MEAN_ANOMALY": 183.8157, "EPHEMERIS_TYPE": 0, "CLASSIFICATION_TYPE": "U", "NORAD_CAT_ID": 33710, "ELEMENT_SET_NO": 999, "REV_AT_EPOCH": 67508, "BSTAR": 0.0015671, "MEAN_MOTION_DOT": 2.844e-05, "MEAN_MOTION_DDOT": 0}, "tle": {"line1": "1 33710U 99025DGX 25336.21936454  .00002844  00000+0  15671-2 0  9991", "line2": "2 33710  98.9804  75.0562 0056132 176.3436 183.8157 14.11571356675089"}}, "geometry": {"type": "Point", "coordinates": [95.38139306097095, -62.44698760382168]}}, {"type": "Feature", "properties": {"norad_id": 33711, "name": "FENGYUN 1C DEB", "group": "fengyun-1c-debris", "lat": 23.46916433102136, "lon": 28.304941186368037, "alt_km": 840.4743814347648, "timestamp": "2025-12-04T21:36:16.159860+00:00", "meta": {"OBJECT_NAME": "FENGYUN 1C DEB", "OBJECT_ID": "1999-025DGY", "EPOCH": "2025-12-04T15:20:39.026112", "MEAN_MOTION": 14.00898596, "ECCENTRICITY": 0.00973241, "INCLINATION": 99.1844, "RA_OF_ASC_NODE": 32.0707, "ARG_OF_PERICENTER": 70.48, "MEAN_ANOMALY": 79.4194, "EPHEMERIS_TYPE": 0, "CLASSIFICATION_TYPE": "U", "NORAD_CAT_ID": 33711, "ELEMENT_SET_NO": 999, "REV_AT_EPOCH": 91818, "BSTAR": 0.00095315286, "MEAN_MOTION_DOT": 1.44e-05, "MEAN_MOTION_DDOT": 0}, "tle": {"line1": "1 33711U 99025DGY 25338.63934058  .00001440  00000+0  95315-3 0  9993", "line2": "2 33711  99.1844  32.0707 0097324  70.4800  79.4194 14.00898596918186"}}, "geometry": {"type": "Point", "coordinates": [28.304941186368037, 23.46916433102136]}}, {"type": "Feature", "properties": {"norad_id": 33716, "name": "FENGYUN 1C DEB", "group": "fengyun-1c-debris", "lat": 28.819297615739472, "lon": 89.22586711241235, "alt_km": 824.3698723277803, "timestamp": "2025-12-04T21:36:16.159870+00:00", "meta": {"OBJECT_NAME": "FENGYUN 1C DEB", "OBJECT_ID": "1999-025DHD", "EPOCH": "2025-12-03T01:19:44.904576", "MEAN_MOTION": 14.32651321, "ECCENTRICITY": 0.00941178, "INCLINATION": 98.8728, "RA_OF_ASC_NODE": 262.4074, "ARG_OF_PERICENTER": 26.1691, "MEAN_ANOMALY": 334.4204, "EPHEMERIS_TYPE": 0, "CLASSIFICATION_TYPE": "U", "NORAD_CAT_ID": 33716, "ELEMENT_SET_NO": 999, "REV_AT_EPOCH": 65019, "BSTAR": 0.00025304752, "MEAN_MOTION_DOT": 6.76e-06, "MEAN_MOTION_DDOT": 0}, "tle": {"line1": "1 33716U 99025DHD 25337.05538084  .00000676  00000+0  25305-3 0  9994", "line2": "2 33716  98.8728 262.4074 0094117  26.1691 334.4204 14.32651321650195"}}, "geometry": {"type": "Point", "coordinates": [89.22586711241235, 28.819297615739472]}}, {"type": "Feature", "properties": {"norad_id": 33718, "name": "FENGYUN 1C DEB", "group": "fengyun-1c-debris", "lat": -35.04906930810081, "lon": -121.90366917599935, "alt_km": 913.675075227402, "timestamp": "2025-12-04T21:36:16.159880+00:00", "meta": {"OBJECT_NAME": "FENGYUN 1C DEB", "OBJECT_ID": "1999-025DHF", "EPOCH": "2025-12-04T12:03:03.158496", "MEAN_MOTION": 14.08010007, "ECCENTRICITY": 0.00976156, "INCLINATION": 99.6605, "RA_OF_ASC_NODE": 64.533, "ARG_OF_PERICENTER": 342.8388, "MEAN_ANOMALY": 16.9486, "EPHEMERIS_TYPE": 0, "CLASSIFICATION_TYPE": "U", "NORAD_CAT_ID": 33718, "ELEMENT_SET_NO": 999, "REV_AT_EPOCH": 69070, "BSTAR": 0.0030405254, "MEAN_MOTION_DOT": 5.355e-05, "MEAN_MOTION_DDOT": 0}, "tle": {"line1": "1 33718U 99025DHF 25338.50211989  .00005355  00000+0  30405-2 0  9994", "line2": "2 33718  99.6605  64.5330 0097615 342.8388  16.9486 14.08010007690701"}}, "geometry": {"type": "Point", "coordinates": [-121.90366917599935, -35.04906930810081]}}, {"type": "Feature", "properties": {"norad_id": 33719, "name": "FENGYUN 1C DEB", "group": "fengyun-1c-debris", "lat": 14.258701577251868, "lon": 36.64377533630634, "alt_km": 813.685644860082, "timestamp": "2025-12-04T21:36:16.159891+00:00", "meta": {"OBJECT_NAME": "FENGYUN 1C DEB", "OBJECT_ID": "1999-025DHG", "EPOCH": "2025-12-03T22:45:11.954592", "MEAN_MOTION": 14.23416245, "ECCENTRICITY": 0.00308864, "INCLINATION": 98.7747, "RA_OF_ASC_NODE": 37.9441, "ARG_OF_PERICENTER": 104.9071, "MEAN_ANOMALY": 73.7168, "EPHEMERIS_TYPE": 0, "CLASSIFICATION_TYPE": "U", "NORAD_CAT_ID": 33719, "ELEMENT_SET_NO": 999, "REV_AT_EPOCH": 91888, "BSTAR": 0.0022106119, "MEAN_MOTION_DOT": 5.002e-05, "MEAN_MOTION_DDOT": 0}, "tle": {"line1": "1 33719U 99025DHG 25337.94805503  .00005002  00000+0  22106-2 0  9991", "line2": "2 33719  98.7747  37.9441 0030886 104.9071  73.7168 14.23416245918880"}}, "geometry": {"type": "Point", "coordinates": [36.64377533630634, 14.258701577251868]}}, {"type": "Feature", "properties": {"norad_id": 33722, "name": "FENGYUN 1C DEB", "group": "fengyun-1c-debris", "lat": -24.9423074009026, "lon": -2.4970493841950248, "alt_km": 768.749631703974, "timestamp": "2025-12-04T21:36:16.159901+00:00", "meta": {"OBJECT_NAME": "FENGYUN 1C DEB", "OBJECT_ID": "1999-025DHK", "EPOCH": "2025-12-02T07:12:31.694976", "MEAN_MOTION": 14.21298555, "ECCENTRICITY": 0.0158154, "INCLINATION": 98.5756, "RA_OF_ASC_NODE": 350.9528, "ARG_OF_PERICENTER": 282.0682, "MEAN_ANOMALY": 76.2813, "EPHEMERIS_TYPE": 0, "CLASSIFICATION_TYPE": "U", "NORAD_CAT_ID": 33722, "ELEMENT_SET_NO": 999, "REV_AT_EPOCH": 91999, "BSTAR": 0.00092614, "MEAN_MOTION_DOT": 2.247e-05, "MEAN_MOTION_DDOT": 0}, "tle": {"line1": "1 33722U 99025DHK 25336.30036684  .00002247  00000+0  92614-3 0  9990", "line2": "2 33722  98.5756 350.9528 0158154 282.0682  76.2813 14.21298555919999"}}, "geometry": {"type": "Point", "coordinates": [-2.4970493841950248, -24.9423074009026]}}, {"type": "Feature", "properties": {"norad_id": 33723, "name": "FENGYUN 1C DEB", "group": "fengyun-1c-debris", "lat": -54.344136848444236, "lon": 72.2846799786557, "alt_km": 807.9669104735431, "timestamp": "2025-12-04T21:36:16.159911+00:00", "meta": {"OBJECT_NAME": "FENGYUN 1C DEB", "OBJECT_ID": "1999-025DHL", "EPOCH": "2025-11-30T11:06:07.081344", "MEAN_MOTION": 14.13160086, "ECCENTRICITY": 0.00983728, "INCLINATION": 99.1553, "RA_OF_ASC_NODE": 54.7561, "ARG_OF_PERICENTER": 5.6896, "MEAN_ANOMALY": 56.2557, "EPHEMERIS_TYPE": 0, "CLASSIFICATION_TYPE": "U", "NORAD_CAT_ID": 33723, "ELEMENT_SET_NO": 999, "REV_AT_EPOCH": 63450, "BSTAR": 0.0020390753, "MEAN_MOTION_DOT": 3.948e-05, "MEAN_MOTION_DDOT": 0}, "tle": {"line1": "1 33723U 99025DHL 25334.46258196  .00003948  00000+0  20391-2 0  9991", "line2": "2 33723  99.1553  54.7561 0098372   5.6896  56.2557 14.13160086634501"}}, "geometry": {"type": "Point", "coordinates": [72.2846799786557, -54.344136848444236]}}]}